#aV2022  1 12  0  0  0.00000000     288 DD+AD WGS84 FIT  NGA
## 2192 259200.00000000   300.00000000 59591 0.0000000000000
+   32     1  2  3  4  5  6  7  8  9 10 11 12 13 14 15 16 17
+         18 19 20 21 22 23 24 25 26 27 28 29 30 31 32  0  0
+          0  0  0  0  0  0  0  0  0  0  0  0  0  0  0  0  0
+          0  0  0  0  0  0  0  0  0  0  0  0  0  0  0  0  0
+          0  0  0  0  0  0  0  0  0  0  0  0  0  0  0  0  0
++         2  2  2  2  2  2  2  2  2  2  2  2  2  2  2  2  2
++         2  2  2  2  2  2  2  2  2  2  2  2  2  2  2  0  0
++         0  0  0  0  0  0  0  0  0  0  0  0  0  0  0  0  0
++         0  0  0  0  0  0  0  0  0  0  0  0  0  0  0  0  0
++         0  0  0  0  0  0  0  0  0  0  0  0  0  0  0  0  0
%c cc cc ccc ccc cccc cccc cccc cccc ccccc ccccc ccccc ccccc
%c cc cc ccc ccc cccc cccc cccc cccc ccccc ccccc ccccc ccccc
%f  0.0000000  0.000000000  0.00000000000  0.000000000000000
%f  0.0000000  0.000000000  0.00000000000  0.000000000000000
%i    0    0    0    0      0      0      0      0         0
%i    0    0    0    0      0      0      0      0         0
/*      NGA, ST. LOUIS,MO.                                  
/*   EPHEMERIS COMPUTED FROM 2 DAYS OF DATA                 
/*   EPOCHA v7 SMOOTHER                                     
/*   G2139 IERS2010 SATIGS SATAPC                           
*  2022  1 12  8 55  0.00000000
P  1  -6763.695070  18115.993962 -18323.795045    459.388221                    
V  1 -20218.580305  10557.214543  18508.214647     -0.098490                    
P  2  21371.309700 -15868.810889    537.287144   -648.414116                    
V  2   1428.198717   2179.444433 -31766.352324     -0.010008                    
P  3   3735.335691  17430.891154 -19826.142143    -75.197050                    
V  3 -22319.544766 -11045.740399 -13887.393657     -0.147775                    
P  4   -668.202654  26501.392778   -603.352067   -195.311827                    
V  4  -2879.979893   -797.146812 -31797.026864      0.017008                    
P  5  12730.442963 -10045.636404  20899.218235    -67.621090                    
V  5  23788.447453  12552.242837  -8244.194704     -0.013180                    
P  6  22487.134803  -2918.894508 -13814.697485    168.618412                    
V  6 -14242.031338  10438.580546 -25193.131457      0.108901                    
P  7  10176.112387  12033.375542  21786.310307    300.956264                    
V  7 -22923.177804  13848.462169   2622.051912      0.037327                    
P  8  -6911.525151  22755.747889  11445.170227    -51.834945                    
V  8  -3195.470898 -14548.295691  27285.879041     -0.015681                    
P  9   8108.921196  23179.155715  10005.727476   -358.156791                    
V  9  -2179.907048  12940.562790 -28037.401840      0.011199                    
P 10 -23995.766586 -11597.893198  -1806.444476   -291.565567                    
V 10  -1091.680683  -3098.516828  31705.562397     -0.095779                    
P 11  23678.735270 -11985.839544   -873.265510    -35.795804                    
V 11    350.286350   2997.065053 -31754.652014     -0.363492                    
P 12    -48.259767 -16907.898510 -20776.627584   -154.638100                    
V 12  22052.620890  13271.672052 -10857.551107     -0.056519                    
P 13  12847.616988 -16689.798326  15930.718536    244.082656                    
V 13   -339.620071  20645.035961  21845.452969      0.060170                    
P 14  23352.078727  12619.789329  -1654.495040    -69.483485                    
V 14    275.875187   3615.381626  31480.122699     -0.054461                    
P 15   4205.222198 -23775.529754  10290.695189    -92.143524                    
V 15   5672.951733  13132.514360  27292.385737      0.028499                    
P 16 -16534.938830   5362.033022  19954.165495   -454.463203                    
V 16 -20950.865001 -14999.468185 -12706.133989     -0.054916                    
P 17  12751.432349  11784.745846 -19649.853922    560.330943                    
V 17  -2019.464056  25820.946193  13907.445017      0.052042                    
P 18 -10017.823496 -11431.975202  21784.951904    262.363786                    
V 18  23754.238588 -14113.026823   3418.915100     -0.072928                    
P 19  14733.735192   2825.898474 -22184.912064    104.511306                    
V 19  -2282.355682  27383.282587   1823.556089      0.049720                    
P 20  20901.333739  -4521.482663  15581.758512    517.210739                    
V 20  17918.771307   9138.074607 -21627.138471     -0.001771                    
P 21 -14798.850136  19071.497722  -9666.036794    155.937604                    
V 21 -12794.612744   5285.413643  28666.458609      0.007981                    
P 22  -5243.167945  14727.224629 -21304.416765   -419.389028                    
V 22 -25453.794349 -10511.640331   -778.574065      0.088819                    
P 23 -18790.032288 -16544.643738   8992.341049     12.009946                    
V 23  11209.444179   3120.742262  29025.959252     -0.038766                    
P 24   9506.860461 -20084.933881 -14529.104255    277.132805                    
V 24  16450.392313  -8288.649542  23089.922601      0.001048                    
P 25 -12690.187323 -18536.261360 -14666.090170    269.712554                    
V 25  16773.261550   6898.508150 -23405.356083      0.055573                    
P 26 -24159.913166  -2695.937701  10978.366599    173.646238                    
V 26 -11399.674480  -8576.051273 -26700.520494      0.034058                    
P 27 -12353.933121  13801.038554  18692.457815     63.707815                    
V 27  -2122.510760 -24190.706652  16670.742447      0.223820                    
P 28  23269.999812   8305.305525  -8910.622891    423.779495                    
V 28   8599.016246   8923.522704  29285.725601     -0.079498                    
P 29  -3721.315762 -25183.829206   7434.005321   -466.278650                    
V 29   2532.600679  -9375.225296 -30373.339937     -0.048489                    
P 30  18477.767326   5049.967263  18561.354016   -506.166281                    
V 30 -19403.843271  13243.440902  15528.858030     -0.026583                    
P 31 -23804.205253   4245.672840 -11633.761586   -159.565239                    
V 31  11411.108369  -9092.813075 -26485.370985     -0.018329                    
P 32 -14858.330774  -6992.928440 -20790.902163    -49.267709                    
V 32   -112.649856 -26658.422486   8809.503417     -0.060402                    
EOF
